{
  "norad_id": 62223,
  "name": "STARLINK-11483 [DTC]",
  "history": [
    {
      "epoch": "2026-03-28T18:44:03.068448Z",
      "apogee_km": 360.31895400888516,
      "perigee_km": 358.15046355069717,
      "latitude_deg": 1.8533181200284982e-06,
      "longitude_deg": -100.32790536583326,
      "height_km": 360.5238332388702,
      "semi_major_axis_km": 6737.37170877979,
      "eccentricity": 0.00016093,
      "inclination_deg": 53.1579,
      "raan_deg": 6.881,
      "arg_perigee_deg": 110.302,
      "mean_anomaly_deg": 249.8171,
      "mean_motion_rev_day": 15.69881961
    },
    {
      "epoch": "2026-03-29T03:54:09.528192Z",
      "apogee_km": 360.2811041699888,
      "perigee_km": 358.7125830112009,
      "latitude_deg": -4.429844675700751e-05,
      "longitude_deg": 119.88510933109809,
      "height_km": 360.0534481534321,
      "semi_major_axis_km": 6737.633843590595,
      "eccentricity": 0.0001164,
      "inclination_deg": 53.1578,
      "raan_deg": 4.9975,
      "arg_perigee_deg": 62.9265,
      "mean_anomaly_deg": 297.1871,
      "mean_motion_rev_day": 15.69790345
    }
  ]
}